C/2014 F3 (Sheppard-Trujillo),e,6.5205,327.0249,2.0302,16.25251,0.0150426,0.64894648,353.1497,02/05.0/2020,2000,g  6.0,4.0
# From MPC101095
C/2014 G3 (PANSTARRS),e,156.0841,4.7849,148.2396,54.10284,0.0024767,0.91295469,4.5261,02/05.0/2020,2000,g  9.0,4.0
# From MPC105541
C/2014 HU195 (Valdes-TOTAS),e,5.8173,115.7411,145.3654,22.11886,0.0094746,0.76791550,16.3155,02/05.0/2020,2000,g 10.5,4.0
# From MPC 98560
P/2014 L2 (NEOWISE),e,5.1943,149.3559,182.6258,6.304185,0.0622674,0.64773236,126.3166,02/05.0/2020,2000,g 12.0,4.0
# From MPC 90769
P/2014 L3 (Hill),e,6.2769,115.4729,178.6011,8.162894,0.0422608,0.77393654,86.4300,02/05.0/2020,2000,g 16.0,4.0
# From MPC103844
C/2014 M1 (PANSTARRS),e,160.2187,234.7739,337.1212,8434,0.0000013,0.99933650,0.0000,08/27.5444/2015,2000,g  9.0,4.0
# From MPC 91614
P/2014 M4 (PANSTARRS),e,3.3345,263.2850,147.9815,5.877732,0.0691655,0.59344612,129.2287,02/05.0/2020,2000,g 15.0,4.0
# From MPC103844
P/2014 MG4 (Spacewatch-PANSTARRS),e,9.3701,311.7395,299.0466,5.011701,0.0878469,0.26003292,212.8938,02/05.0/2020,2000,g  9.5,4.0
# From MPC103844
C/2014 N3 (NEOWISE),e,61.6586,19.8521,353.4022,1594,0.0000155,0.99757146,0.0000,03/12.6512/2015,2000,g  7.0,4.0
# From MPC 98560
P/2014 O3 (PANSTARRS),e,7.8091,87.6395,204.4851,7.558036,0.0474341,0.38640648,100.4177,02/05.0/2020,2000,g 10.5,4.0
# From MPEC 2020-AA5
C/2014 OE4 (PANSTARRS),h,12/12.3625/2016,81.3380,240.3985,65.8533,1.002438,6.247444,2000,11.0,2.0
# From MPC100578
C/2014 Q1 (PANSTARRS),e,43.0647,9.0506,119.9517,979.2926,0.0000322,0.99967485,0.0000,07/05.2908/2015,2000,g  8.0,4.0
# From MPC115880
C/2014 Q2 (Lovejoy),e,80.1916,95.0447,12.3473,415.8569,0.0001162,0.99689412,0.0000,01/28.2866/2015,2000,g  2.7,10.0
# From MPC115880
C/2014 R3 (PANSTARRS),e,90.8974,334.0919,113.4624,7319,0.0000016,0.99900581,0.0000,08/08.7120/2016,2000,g  6.5,4.0
# From MPC 91615
P/2014 R5 (Lemmon-PANSTARRS),e,1.0883,126.5507,213.6973,4.057447,0.1205937,0.41321350,248.2954,02/05.0/2020,2000,g 15.0,4.0
# From MPC104790
C/2014 S2 (PANSTARRS),e,64.4657,8.1023,87.3621,171.6286,0.0004383,0.98786409,0.0000,12/09.0456/2015,2000,g 10.0,4.0
# From MPC 91616
P/2014 U4 (PANSTARRS),e,6.4299,11.9673,347.7608,3.506545,0.1501015,0.46551985,303.7736,02/05.0/2020,2000,g 18.0,4.0
# From MPC 95211
P/2014 V1 (PANSTARRS),e,22.5023,166.2098,177.5493,5.482808,0.0767714,0.53366951,141.2830,02/05.0/2020,2000,g 14.0,4.0
# From MPC 93586
P/2014 W1 (PANSTARRS),e,8.8402,246.2446,152.3403,4.459772,0.1046490,0.38869443,211.8998,02/05.0/2020,2000,g 15.5,4.0
# From MPC110493
C/2014 W2 (PANSTARRS),e,82.0325,69.9646,84.9383,607.8640,0.0000658,0.99560421,0.0000,03/08.6651/2016,2000,g  7.5,4.0
# From MPC105542
P/2014 W4 (PANSTARRS),e,15.2677,33.3484,67.9690,6.603545,0.0580816,0.35219909,86.9236,02/05.0/2020,2000,g 11.0,4.0
# From MPC 95211
C/2014 W6 (Catalina),h,03/18.2298/2015,53.4916,338.1985,209.9485,1.001277,3.097083,2000,10.5,4.0
# From MPC 91616
C/2014 W8 (PANSTARRS),e,41.9600,224.8321,227.9952,170.5913,0.0004424,0.97057140,0.0000,09/08.9222/2015,2000,g 11.0,4.0
# From MPC 94672
C/2014 W9 (PANSTARRS),e,10.6158,21.3542,167.8954,11.20896,0.0262637,0.85735915,47.7111,02/05.0/2020,2000,g 16.0,4.0
# From MPC115880
C/2014 W10 (PANSTARRS),e,82.8654,43.1329,43.6725,862.8370,0.0000389,0.99122050,0.0000,03/04.8550/2016,2000,g  8.0,4.0
# From MPC107047
C/2014 W11 (PANSTARRS),e,14.2754,295.4600,226.2004,9.932158,0.0314875,0.66346193,52.2884,02/05.0/2020,2000,g 10.0,4.0
# From MPC 93587
P/2014 W12 (Gibbs),e,8.5141,299.2884,36.9225,3.517347,0.1494106,0.52392434,285.2332,02/05.0/2020,2000,g 15.0,4.0
# From MPC 94281
P/2014 X1 (Elenin),e,25.9992,61.5017,34.0273,6.212384,0.0636527,0.70860120,118.3589,02/05.0/2020,2000,g 15.0,4.0
# From MPC 96866
C/2014 XB8 (PANSTARRS),e,149.7907,37.4863,351.2962,627.4078,0.0000627,0.99521158,0.0000,04/04.0378/2015,2000,g 13.5,4.0
# From MPC100579
C/2014 Y1 (PANSTARRS),h,01/16.8545/2016,14.9178,19.5237,182.3430,1.001678,2.250588,2000,9.5,4.0
# From MPC 96279
C/2015 A1 (PANSTARRS),e,80.2094,341.0327,244.9328,20.24040,0.0108237,0.90133203,19.3749,02/05.0/2020,2000,g 14.5,4.0
# From MPC 93587
C/2015 A2 (PANSTARRS),p,08/01.8353/2015,109.1696,208.8369,5.341055,258.5042,2000,10.5,4.0
# From MPC 92275
P/2015 A3 (PANSTARRS),e,172.5279,277.1588,249.2070,7.807690,0.0451773,0.85181380,81.8506,02/05.0/2020,2000,g 20.0,4.0
# From MPC 99270
P/2015 B1 (PANSTARRS),e,18.0230,353.0816,188.7258,9.503949,0.0336394,0.36972281,53.8791,02/05.0/2020,2000,g  8.5,4.0
# From MPC108592
C/2015 B2 (PANSTARRS),h,05/06.1334/2016,105.0181,341.8734,284.7198,1.000247,3.368445,2000,9.5,4.0
# From MPC109141
P/2015 B4 (Lemmon-PANSTARRS),e,1.7605,266.0264,227.5226,8.539547,0.0394959,0.56104715,72.0410,02/05.0/2020,2000,g 11.0,4.0
# From MPC101096
P/2015 C1 (TOTAS-Gibbs),e,13.8843,348.8350,178.4006,6.589869,0.0582625,0.56037213,101.5341,02/05.0/2020,2000,g 12.5,4.0
# From MPC 95211
C/2015 C2 (SWAN),e,94.5373,49.5052,333.9583,345.8758,0.0001532,0.99795974,0.0000,03/03.9442/2015,2000,g 14.0,4.0
# From MPC119995
C/2015 D3 (PANSTARRS),h,05/03.1305/2016,128.5425,157.0351,2.9980,1.003851,8.149374,2000,5.5,4.0
# From MPC109141
P/2015 D5 (Kowalski),e,20.4936,74.0608,39.9952,8.980241,0.0366245,0.48906374,78.1738,02/05.0/2020,2000,g  9.0,4.0
# From MPC 96866
P/2015 D6 (Lemmon-PANSTARRS),e,20.2101,46.1303,125.2769,7.153538,0.0515137,0.36262575,86.2187,02/05.0/2020,2000,g 10.5,4.0
# From MPC112390
C/2015 ER61 (PANSTARRS),e,6.3461,235.2030,68.2234,456.7587,0.0001010,0.99771933,0.0000,05/10.2668/2017,2000,g 11.0,2.0
# From MPEC 2018-BF5
C/2015 E61-B (PANSTARRS),e,6.3477,235.2381,68.3126,1132,0.0000259,0.99907863,0.0000,05/10.2444/2017,2000,g 13.5,2.0
# From MPC109142
P/2015 F1 (PANSTARRS),e,2.8026,40.4077,187.4020,3.524019,0.1489864,0.27827609,266.0944,02/05.0/2020,2000,g 12.5,4.0
# From MPC 98561
C/2015 F2 (Polonia),e,28.7281,262.4488,352.2266,39.14871,0.0040237,0.96897832,7.0118,02/05.0/2020,2000,g 16.5,4.0
# From MPC 96279
C/2015 F3 (SWAN),e,73.5440,31.7145,57.4485,179.8847,0.0004085,0.99536067,0.0000,03/07.4974/2015,2000,g 14.5,4.0
# From MPC115880
C/2015 F4 (Jacques),e,48.8045,285.9194,36.3185,117.0594,0.0007782,0.98599108,0.0000,08/11.7960/2015,2000,g 11.0,4.0
# From MPC 95212
C/2015 F5 (SWAN-Xingming),e,149.3765,287.7500,13.4768,15.57094,0.0160410,0.97758103,0.0000,03/28.3558/2015,2000,g 15.5,4.0
# From MPC102096
C/2015 GX (PANSTARRS),e,90.2638,235.4949,108.8183,16.16580,0.0151638,0.87861280,24.6028,02/05.0/2020,2000,g 14.0,4.0
# From MPC109142
C/2015 G2 (MASTER),h,05/24.7233/2015,147.6613,110.2447,257.6486,1.000611,0.779522,2000,11.0,4.0
# From MPC 98561
C/2015 H1 (Bressi),e,140.6700,325.8512,21.9362,32.04075,0.0054344,0.93951139,9.6507,02/05.0/2020,2000,g 13.5,4.0
# From MPC117068
C/2015 H2 (PANSTARRS),h,09/14.1840/2016,33.6714,350.6914,288.0252,1.005463,4.972769,2000,7.5,4.0
# From MPC100280
P/2015 HG16 (PANSTARRS),e,18.8553,59.2139,47.2339,4.753690,0.0950950,0.34873675,195.0670,02/05.0/2020,2000,g 12.5,4.0
# From MPC101096
C/2015 J2 (PANSTARRS),e,17.2747,56.7507,203.8899,293.3834,0.0001961,0.98523712,0.0000,09/09.9931/2015,2000,g 10.0,4.0
# From MPC 95733
P/2015 J3 (NEOWISE),e,8.1307,111.3516,129.4290,3.349574,0.1607754,0.55451318,288.9230,02/05.0/2020,2000,g 16.5,4.0
# From MPC 95733
C/2015 K2 (PANSTARRS),e,29.0849,223.7173,15.9380,305.4208,0.0001847,0.99521099,0.0000,06/08.9492/2015,2000,g 20.0,4.0
# From MPC 95733
C/2015 K4 (PANSTARRS),h,05/01.8486/2015,80.2639,250.7296,357.7270,1.000901,2.017300,2000,15.0,4.0
# From MPC 95213
P/2015 K5 (PANSTARRS),e,39.9474,134.1933,106.2700,6.716831,0.0566184,0.55416228,96.5010,02/05.0/2020,2000,g 13.5,4.0
# From MPC111767
C/2015 LC2 (PANSTARRS),h,05/02.2790/2015,93.7213,223.5983,342.0265,1.000401,5.905438,2000,8.0,4.0
# From MPC 95734
C/2015 M1 (PANSTARRS),e,57.3302,100.1743,164.1749,448.4437,0.0001038,0.99532053,0.0000,05/15.8947/2015,2000,g 16.5,4.0
# From MPC107684
P/2015 M2 (PANSTARRS),e,3.9736,86.5784,225.1681,7.222313,0.0507796,0.18103832,81.9196,02/05.0/2020,2000,g  8.5,4.0
# From MPC115881
C/2015 M3 (PANSTARRS),e,65.8796,143.0164,123.8696,138.5233,0.0006045,0.97431820,0.0000,08/26.2775/2015,2000,g 12.0,4.0
# From MPC112390
C/2015 O1 (PANSTARRS),h,02/19.3200/2018,127.2224,299.8518,89.6289,1.000601,3.730305,2000,6.5,4.0
# From MPC 96280
C/2015 P3 (SWAN),e,58.2007,87.9887,133.1044,265.6996,0.0002276,0.99728422,0.0000,07/27.4777/2015,2000,g 15.5,4.0
# From MPC 99819
P/2015 P4 (PANSTARRS),e,8.7179,104.7665,280.6048,6.052558,0.0661905,0.58399714,97.8360,02/05.0/2020,2000,g 14.0,4.0
# From MPC102952
P/2015 PD229 (Cameron-ISON),e,2.0258,342.6554,352.3402,7.178995,0.0512399,0.32788712,83.8144,02/05.0/2020,2000,g 11.5,2.0
# From MPC 99819
P/2015 Q1 (Scotti),e,22.4075,203.0496,199.8798,3.469136,0.1525359,0.47889509,247.1821,02/05.0/2020,2000,g 14.0,4.0
# From MPC 96867
P/2015 Q2 (Pimentel),e,146.4680,228.3747,244.4085,7.344451,0.0495182,0.75131174,79.8486,02/05.0/2020,2000,g 15.5,4.0
# From MPC 98562
P/2015 R1 (PANSTARRS),e,22.6735,48.4824,300.3815,5.881618,0.0690969,0.63358224,116.3766,02/05.0/2020,2000,g 14.0,4.0
# From MPC 95734
P/2015 R2 (PANSTARRS),e,15.4715,168.6141,149.7013,4.489769,0.1036020,0.45249965,176.1576,02/05.0/2020,2000,g 14.5,4.0
# From MPC117068
C/2015 T2 (PANSTARRS),e,124.5485,51.0486,30.6731,2815,0.0000066,0.99753686,0.0000,05/18.9697/2017,2000,g  8.0,4.0
# From MPC 96280
P/2015 T3 (PANSTARRS),e,13.0937,120.5019,178.6330,4.326181,0.1095335,0.50818108,359.9227,12/21.0/2014,2000,g 14.0,4.0
# From MPC102953
C/2015 T4 (PANSTARRS),e,87.9644,251.8009,270.0570,80.42902,0.0013664,0.97144092,0.0000,06/17.5277/2016,2000,g 11.0,4.0
# From MPC102097
C/2015 T5 (Sheppard-Tholen),e,11.0492,311.0800,61.7956,28.06160,0.0066303,0.66743272,9.7797,02/05.0/2020,2000,g  7.5,4.0
# From MPC102953
P/2015 TO19 (Lemmon-PANSTARRS),e,6.4993,321.6427,89.2043,4.557770,0.1012921,0.35774455,145.0004,02/05.0/2020,2000,g 14.0,4.0
# From MPC110080
P/2015 TP200 (LINEAR),e,8.7732,6.9807,82.7273,7.283049,0.0501458,0.53491959,59.9490,02/05.0/2020,2000,g 11.0,4.0
# From MPC101097
